EXPRESS-AT1             
1 39612U 14010A   19064.51577457  .00000066  00000-0  00000+0 0  9999
2 39612   0.0526 307.9088 0000047  84.5051  12.2037  1.00271327 18372
EXPRESS-AT2             
1 39613U 14010B   19064.52996488 -.00000294  00000-0  00000+0 0  9994
2 39613   0.0509 298.6970 0000381 209.0855 345.8051  1.00272774 18207
AMAZONAS 4A             
1 39616U 14011A   19064.48730655 -.00000266  00000-0  00000+0 0  9994
2 39616   0.0567  67.7995 0002961 279.1004 277.4665  1.00270965 18184
ASTRA 5B                
1 39617U 14011B   19064.50833042  .00000142  00000-0  00000+0 0  9994
2 39617   0.0357  65.7984 0003176 279.0036  32.6216  1.00274017 18197
IRNSS-1B                
1 39635U 14017A   19063.70071854  .00000098  00000-0  00000+0 0  9996
2 39635  28.6998 284.8825 0018759 177.5342   7.0804  1.00269092 18115
LUCH 5V                 
1 39727U 14023A   19063.91646573 -.00000283  00000-0  00000-0 0  9992
2 39727   1.4334 301.8836 0003579  75.3241 209.8053  1.00272448535839
KAZSAT-3                
1 39728U 14023B   19064.13534729  .00000047  00000-0  00000+0 0  9993
2 39728   0.0215 168.7416 0000443 272.5612 188.4829  1.00273602 17759
EUTELSAT 3B             
1 39773U 14030A   19064.21716118  .00000006  00000-0  00000+0 0  9999
2 39773   0.0763 329.9926 0002017 248.0344  25.8847  1.00272110 17536
ASIASAT 8               
1 40107U 14046A   19063.85519231 -.00000048  00000-0  00000-0 0  9993
2 40107   0.0315 265.4352 0001798  78.9234 121.9154  1.00271922 75478
ASIASAT 6               
1 40141U 14052A   19064.02345451 -.00000376  00000-0  00000+0 0  9992
2 40141   0.0372 285.0646 0000556 118.8165 246.9291  1.00272452 16475
OPTUS 10                
1 40146U 14054A   19064.17415970 -.00000161  00000-0  00000+0 0  9991
2 40146   0.0339 177.1745 0001996 158.6666  45.4577  1.00270383 16448
MEASAT-3B               
1 40147U 14054B   19064.08954088 -.00000255  00000-0  00000+0 0  9994
2 40147   0.0246 326.0420 0002788  29.3717 290.8470  1.00272645 16487
LUCH (OLYMP)            
1 40258U 14058A   19064.75813329  .00000037  00000-0  00000+0 0  9994
2 40258   0.0414 275.2977 0001732  72.9520 147.8213  1.00274058 16265
HIMAWARI-8              
1 40267U 14060A   19064.53013937 -.00000289  00000-0  00000+0 0  9990
2 40267   0.0248 164.6545 0000987 184.9887 144.8616  1.00269772 16185
IRNSS-1C                
1 40269U 14061A   19064.52827189 -.00000176  00000-0  00000+0 0  9999
2 40269   2.0440 216.3356 0018571  10.7622 209.1118  1.00271206 16142
INTELSAT 30 (IS-30)     
1 40271U 14062A   19063.98053444 -.00000163  00000-0  00000+0 0  9993
2 40271   0.0267 153.8466 0002143 303.8334 322.6859  1.00262630 16088
ARSAT 1                 
1 40272U 14062B   19064.48774273 -.00000273  00000-0  00000+0 0  9992
2 40272   0.0195 186.7856 0000891 163.1383 276.7777  1.00271646 16205
EXPRESS-AM6             
1 40277U 14064A   19064.22545441  .00000085  00000-0  00000+0 0  9994
2 40277   0.0466 298.0116 0000340 137.1075 221.6748  1.00273739 15981
GSAT-16                 
1 40332U 14078A   19063.79702266  .00000071  00000-0  00000+0 0  9997
2 40332   0.0412 293.6587 0004630 139.0086  71.5396  1.00272302 15577
DIRECTV 14              
1 40333U 14078B   19064.48712428 -.00000138  00000-0  00000+0 0  9991
2 40333   0.0358 279.5644 0000404 268.4291  51.0389  1.00272660 15565
YAMAL 401               
1 40345U 14082A   19064.01321624 -.00000242  00000-0  00000+0 0  9998
2 40345   0.0153 168.7493 0001081 278.6127 169.7730  1.00272443 15729
ASTRA 2G                
1 40364U 14089A   19064.19077201  .00000136  00000-0  00000+0 0  9995
2 40364   0.0344 347.3201 0003534  46.5145 225.6582  1.00274012 15339
FENGYUN 2G              
1 40367U 14090A   19064.09119837 -.00000314  00000-0  00000+0 0  9990
2 40367   0.9972 103.8375 0002867 292.1793 258.9821  1.00266528 15351
MUOS-3                  
1 40374U 15002A   19064.16021666 -.00000139  00000-0  00000+0 0  9997
2 40374   3.3275 337.5404 0050978 179.8209  47.4524  1.00271081 15137
INMARSAT 5-F2           
1 40384U 15005A   19064.51455370 -.00000298  00000-0  00000+0 0  9999
2 40384   0.0033 162.8110 0000296 142.4520 347.9140  1.00272529 14990
ABS-3A                  
1 40424U 15010A   19064.14249307 -.00000040  00000-0  00000+0 0  9995
2 40424   0.0215 120.1071 0001454 157.4057 293.3616  1.00272867 14726
EUTELSAT 115 WEST B     
1 40425U 15010B   19064.37012514 -.00000038  00000-0  00000+0 0  9996
2 40425   0.0082 277.7924 0000264  48.0993 215.2513  1.00271126 14756
EXPRESS-AM7             
1 40505U 15012A   19064.03174389  .00000137  00000-0  00000+0 0  9998
2 40505   0.0304 141.3389 0002639 177.3177 255.2506  1.00275502 14670
IRNSS-1D                
1 40547U 15018A   19064.02188427 -.00000286  00000-0  00000+0 0  9993
2 40547  28.6309 284.9758 0019554 178.7053 178.3937  1.00267828 14555
BD-17                   
1 40549U 15019A   19064.51341935 -.00000166  00000-0  00000+0 0  9992
2 40549  53.7017 326.6046 0037285 189.6315 288.3205  1.00275481 14407
THOR 7                  
1 40613U 15022A   19064.33382525 -.00000021  00000-0  00000+0 0  9998
2 40613   0.0320 245.2178 0002390 105.8475 291.2151  1.00274069 14133
TURKMENALEM52E/MONACOSAT
1 40617U 15023A   19064.52132597  .00000091  00000-0  00000+0 0  9992
2 40617   0.0179 128.0757 0001796 236.3728  38.1897  1.00271522 14158
DIRECTV 15              
1 40663U 15026A   19064.48357209 -.00000128  00000-0  00000+0 0  9992
2 40663   0.0110 122.6816 0000488 348.6347 124.8217  1.00270055 13856
SKY MEXICO-1            
1 40664U 15026B   19064.46906080 -.00000247  00000-0  00000+0 0  9990
2 40664   0.0169 204.6993 0002044 162.8699 245.3953  1.00270819 13858
METEOSAT-11 (MSG-4)     
1 40732U 15034A   19064.35840191 -.00000018  00000-0  00000+0 0  9999
2 40732   0.9356 225.0226 0001167  90.4222 336.2531  1.00266911 13355
STAR ONE C4             
1 40733U 15034B   19063.84201970 -.00000279  00000-0  00000-0 0  9999
2 40733   0.0293  39.4143 0003289 331.0236  24.9595  1.00271144 13342
WGS F7 (USA 263)        
1 40746U 15036A   19064.17799809  .00000004  00000-0  00000+0 0  9999
2 40746   0.0124 126.8414 0000222 174.6646 100.2001  1.00272078 13191
INTELSAT 34 (IS-34)     
1 40874U 15039A   19063.91060795 -.00000299  00000-0  00000-0 0  9998
2 40874   0.0259 146.2815 0000690  54.8599 233.5716  1.00269191 12989
EUTELSAT 8 WEST B       
1 40875U 15039B   19063.85431995 -.00000080  00000-0  00000-0 0  9994
2 40875   0.0698  27.4901 0002888 323.3548 110.9927  1.00272244 12998
GSAT-6                  
1 40880U 15041A   19064.15959131 -.00000178  00000-0  00000+0 0  9991
2 40880   0.0486 271.6859 0007730  10.7031  20.6342  1.00270973 12949
INMARSAT 5-F3           
1 40882U 15042A   19064.58174694  .00000037  00000-0  00000+0 0  9997
2 40882   0.0132 137.0160 0000678 321.5932  93.4218  1.00272832 12874
MUOS-4                  
1 40887U 15044A   19064.51714123 -.00000103  00000-0  00000+0 0  9999
2 40887   3.5118 335.3764 0058107   0.3342  88.3823  1.00272363 12886
TJS-1                   
1 40892U 15046A   19064.76748352 -.00000168  00000-0  10000-3 0  9991
2 40892   0.0329 241.2687 0002348 133.4038 219.8600  1.00271322 12870
EXPRESS-AM8             
1 40895U 15048A   19063.92496517 -.00000126  00000-0  00000-0 0  9996
2 40895   0.0323 288.4468 0000897 168.0554  24.8294  1.00271545 12691
BD-20                   
1 40938U 15053A   19063.59285315 -.00000088  00000-0  00000+0 0  9991
2 40938  53.3150 289.5850 0046954 180.1399   0.9314  1.00288186 12676
SKY MUSTER (NBN1A)      
1 40940U 15054A   19064.45825699 -.00000292  00000-0  00000+0 0  9993
2 40940   0.0191 168.5498 0001599 179.6279 119.9289  1.00268702 12600
ARSAT 2                 
1 40941U 15054B   19064.17855840 -.00000238  00000-0  00000+0 0  9994
2 40941   0.0151 185.3974 0001267 166.6344 153.8532  1.00271753 12635
MORELOS 3               
1 40946U 15056A   19063.47081189 -.00000055  00000-0  00000+0 0  9997
2 40946   5.5480 328.1671 0003036   0.6240 249.5077  1.00272719 12599
APSTAR 9                
1 40982U 15059A   19064.45860594 -.00000278  00000-0  00000+0 0  9991
2 40982   0.0524 267.5250 0001268  65.6569 136.8309  1.00273385 12470
TURKSAT 4B              
1 40984U 15060A   19063.79412719  .00000101  00000-0  00000+0 0  9997
2 40984   0.0224 146.6276 0001885 191.6654 159.8293  1.00272073 12429
CHINASAT 2C (ZX 2C)     
1 41021U 15063A   19064.02013955 -.00000338  00000-0  00000+0 0  9992
2 41021   0.0463 293.3733 0003392  81.2804 258.4841  1.00273386 12323
GSAT-15                 
1 41028U 15065A   19064.08997706 -.00000271  00000-0  00000+0 0  9998
2 41028   0.0577 266.7243 0001294  97.1577 284.5309  1.00271811 12171
BADR-7 (ARABSAT-6B)     
1 41029U 15065B   19064.50719633  .00000132  00000-0  00000+0 0  9992
2 41029   0.0651 265.1678 0003785 345.7073 120.6774  1.00277138 12231
LAOSAT 1                
1 41034U 15067A   19064.09077271 -.00000357  00000-0  00000+0 0  9999
2 41034   0.0418 309.6018 0002105   2.2348  11.8837  1.00272395 12157
TELSTAR 12V             
1 41036U 15068A   19064.16021666 -.00000133  00000-0  00000+0 0  9999
2 41036   0.0264 151.3816 0002029 196.0160 217.9048  1.00270066 12049
CHINASAT 1C (ZX 1C)     
1 41103U 15073A   19064.15932959 -.00000163  00000-0  00000+0 0  9998
2 41103   0.5300  97.5358 0003657 213.8313 350.0495  1.00271590 11988
ELEKTRO-L 2             
1 41105U 15074A   19064.15828277 -.00000110  00000-0  00000+0 0  9990
2 41105   0.1231 135.5244 0001864 251.1543 268.9266  1.00271689 11830
COSMOS 2513             
1 41121U 15075A   19064.15915513 -.00000151  00000-0  00000+0 0  9994
2 41121   0.0580 112.9659 0002355 238.5744 308.5908  1.00271609 11916
EXPRESS-AMU1            
1 41191U 15082A   19063.86313078  .00000141  00000-0  00000-0 0  9993
2 41191   0.0141 122.3655 0002351 212.3375 174.4030  1.00274074 11592
